CCSDS_OMM_VERS = 2.0
CREATION_DATE  = 
ORIGINATOR     = 

OBJECT_NAME    = SL-4 R/B
OBJECT_ID      = 2014-021B
CENTER_NAME    = EARTH
REF_FRAME      = TEME
TIME_SYSTEM    = UTC
MEAN_ELEMENT_THEORY = SGP/SGP4

EPOCH          = 2026-01-08T03:26:23.123616
MEAN_MOTION    = 15.37381090
ECCENTRICITY   = .0099753
INCLINATION    = 51.6071
RA_OF_ASC_NODE = 272.2147
ARG_OF_PERICENTER = 241.8466
MEAN_ANOMALY   = 117.2411

EPHEMERIS_TYPE = 0
CLASSIFICATION_TYPE = U
NORAD_CAT_ID   = 39679
ELEMENT_SET_NO = 999
REV_AT_EPOCH   = 64695
BSTAR          = .26193E-3
MEAN_MOTION_DOT = .11113E-3
MEAN_MOTION_DDOT = 0

CCSDS_OMM_VERS = 2.0
CREATION_DATE  = 
ORIGINATOR     = 

OBJECT_NAME    = ALOS-2
OBJECT_ID      = 2014-029A
CENTER_NAME    = EARTH
REF_FRAME      = TEME
TIME_SYSTEM    = UTC
MEAN_ELEMENT_THEORY = SGP/SGP4

EPOCH          = 2026-01-08T04:29:59.207712
MEAN_MOTION    = 14.79462783
ECCENTRICITY   = .0001408
INCLINATION    = 97.9215
RA_OF_ASC_NODE = 107.6556
ARG_OF_PERICENTER = 98.5996
MEAN_ANOMALY   = 261.5375

EPHEMERIS_TYPE = 0
CLASSIFICATION_TYPE = U
NORAD_CAT_ID   = 39766
ELEMENT_SET_NO = 999
REV_AT_EPOCH   = 62792
BSTAR          = .9815E-4
MEAN_MOTION_DOT = .682E-5
MEAN_MOTION_DDOT = 0

CCSDS_OMM_VERS = 2.0
CREATION_DATE  = 
ORIGINATOR     = 

OBJECT_NAME    = YAOGAN-29
OBJECT_ID      = 2015-069A
CENTER_NAME    = EARTH
REF_FRAME      = TEME
TIME_SYSTEM    = UTC
MEAN_ELEMENT_THEORY = SGP/SGP4

EPOCH          = 2026-01-08T04:52:14.605248
MEAN_MOTION    = 14.82916654
ECCENTRICITY   = .0001862
INCLINATION    = 98.0195
RA_OF_ASC_NODE = 36.4566
ARG_OF_PERICENTER = 137.8035
MEAN_ANOMALY   = 222.3322

EPHEMERIS_TYPE = 0
CLASSIFICATION_TYPE = U
NORAD_CAT_ID   = 41038
ELEMENT_SET_NO = 999
REV_AT_EPOCH   = 54691
BSTAR          = .15021E-4
MEAN_MOTION_DOT = .68E-6
MEAN_MOTION_DDOT = 0

CCSDS_OMM_VERS = 2.0
CREATION_DATE  = 
ORIGINATOR     = 

OBJECT_NAME    = ASTRO-H (HITOMI)
OBJECT_ID      = 2016-012A
CENTER_NAME    = EARTH
REF_FRAME      = TEME
TIME_SYSTEM    = UTC
MEAN_ELEMENT_THEORY = SGP/SGP4

EPOCH          = 2026-01-08T03:23:03.600960
MEAN_MOTION    = 15.09558502
ECCENTRICITY   = .0009548
INCLINATION    = 31.0009
RA_OF_ASC_NODE = 27.1442
ARG_OF_PERICENTER = 84.8157
MEAN_ANOMALY   = 275.3571

EPHEMERIS_TYPE = 0
CLASSIFICATION_TYPE = U
NORAD_CAT_ID   = 41337
ELEMENT_SET_NO = 999
REV_AT_EPOCH   = 54307
BSTAR          = .17019E-3
MEAN_MOTION_DOT = .2896E-4
MEAN_MOTION_DDOT = 0

CCSDS_OMM_VERS = 2.0
CREATION_DATE  = 
ORIGINATOR     = 

OBJECT_NAME    = HXMT (HUIYAN)
OBJECT_ID      = 2017-034A
CENTER_NAME    = EARTH
REF_FRAME      = TEME
TIME_SYSTEM    = UTC
MEAN_ELEMENT_THEORY = SGP/SGP4

EPOCH          = 2026-01-08T04:53:50.422848
MEAN_MOTION    = 15.16624395
ECCENTRICITY   = .0032948
INCLINATION    = 43.0155
RA_OF_ASC_NODE = 352.7353
ARG_OF_PERICENTER = 214.1195
MEAN_ANOMALY   = 145.7535

EPHEMERIS_TYPE = 0
CLASSIFICATION_TYPE = U
NORAD_CAT_ID   = 42758
ELEMENT_SET_NO = 999
REV_AT_EPOCH   = 47335
BSTAR          = .32162E-3
MEAN_MOTION_DOT = .6254E-4
MEAN_MOTION_DDOT = 0

CCSDS_OMM_VERS = 2.0
CREATION_DATE  = 
ORIGINATOR     = 

OBJECT_NAME    = CZ-2C R/B
OBJECT_ID      = 2018-054D
CENTER_NAME    = EARTH
REF_FRAME      = TEME
TIME_SYSTEM    = UTC
MEAN_ELEMENT_THEORY = SGP/SGP4

EPOCH          = 2026-01-08T03:05:54.105216
MEAN_MOTION    = 15.80910909
ECCENTRICITY   = .0010741
INCLINATION    = 35.1340
RA_OF_ASC_NODE = 1.1177
ARG_OF_PERICENTER = 52.9705
MEAN_ANOMALY   = 307.2011

EPHEMERIS_TYPE = 0
CLASSIFICATION_TYPE = U
NORAD_CAT_ID   = 43521
ELEMENT_SET_NO = 999
REV_AT_EPOCH   = 41922
BSTAR          = .68663E-3
MEAN_MOTION_DOT = .141096E-2
MEAN_MOTION_DDOT = 0

CCSDS_OMM_VERS = 2.0
CREATION_DATE  = 
ORIGINATOR     = 

OBJECT_NAME    = SAOCOM 1A
OBJECT_ID      = 2018-076A
CENTER_NAME    = EARTH
REF_FRAME      = TEME
TIME_SYSTEM    = UTC
MEAN_ELEMENT_THEORY = SGP/SGP4

EPOCH          = 2026-01-08T04:53:04.847712
MEAN_MOTION    = 14.82169523
ECCENTRICITY   = .0001322
INCLINATION    = 97.8845
RA_OF_ASC_NODE = 197.2406
ARG_OF_PERICENTER = 83.4667
MEAN_ANOMALY   = 276.6697

EPHEMERIS_TYPE = 0
CLASSIFICATION_TYPE = U
NORAD_CAT_ID   = 43641
ELEMENT_SET_NO = 999
REV_AT_EPOCH   = 39240
BSTAR          = .19644E-3
MEAN_MOTION_DOT = .1512E-4
MEAN_MOTION_DDOT = 0

CCSDS_OMM_VERS = 2.0
CREATION_DATE  = 
ORIGINATOR     = 

OBJECT_NAME    = H-2A R/B
OBJECT_ID      = 2018-084L
CENTER_NAME    = EARTH
REF_FRAME      = TEME
TIME_SYSTEM    = UTC
MEAN_ELEMENT_THEORY = SGP/SGP4

EPOCH          = 2026-01-08T02:36:10.658016
MEAN_MOTION    = 15.38553619
ECCENTRICITY   = .0025882
INCLINATION    = 98.8764
RA_OF_ASC_NODE = 212.6772
ARG_OF_PERICENTER = 233.2542
MEAN_ANOMALY   = 126.6322

EPHEMERIS_TYPE = 0
CLASSIFICATION_TYPE = U
NORAD_CAT_ID   = 43682
ELEMENT_SET_NO = 999
REV_AT_EPOCH   = 39645
BSTAR          = .47032E-3
MEAN_MOTION_DOT = .18017E-3
MEAN_MOTION_DDOT = 0

CCSDS_OMM_VERS = 2.0
CREATION_DATE  = 
ORIGINATOR     = 

OBJECT_NAME    = SAOCOM 1B
OBJECT_ID      = 2020-059A
CENTER_NAME    = EARTH
REF_FRAME      = TEME
TIME_SYSTEM    = UTC
MEAN_ELEMENT_THEORY = SGP/SGP4

EPOCH          = 2026-01-08T04:00:48.506976
MEAN_MOTION    = 14.82174349
ECCENTRICITY   = .0001473
INCLINATION    = 97.8843
RA_OF_ASC_NODE = 196.3043
ARG_OF_PERICENTER = 82.3899
MEAN_ANOMALY   = 277.7481

EPHEMERIS_TYPE = 0
CLASSIFICATION_TYPE = U
NORAD_CAT_ID   = 46265
ELEMENT_SET_NO = 999
REV_AT_EPOCH   = 28978
BSTAR          = .51359E-4
MEAN_MOTION_DOT = .357E-5
MEAN_MOTION_DDOT = 0

CCSDS_OMM_VERS = 2.0
CREATION_DATE  = 
ORIGINATOR     = 

OBJECT_NAME    = CSS (TIANHE)
OBJECT_ID      = 2021-035A
CENTER_NAME    = EARTH
REF_FRAME      = TEME
TIME_SYSTEM    = UTC
MEAN_ELEMENT_THEORY = SGP/SGP4

EPOCH          = 2026-01-08T00:44:47.205888
MEAN_MOTION    = 15.60269105
ECCENTRICITY   = .0011174
INCLINATION    = 41.4651
RA_OF_ASC_NODE = 216.9599
ARG_OF_PERICENTER = 241.9537
MEAN_ANOMALY   = 118.0172

EPHEMERIS_TYPE = 0
CLASSIFICATION_TYPE = U
NORAD_CAT_ID   = 48274
ELEMENT_SET_NO = 999
REV_AT_EPOCH   = 26813
BSTAR          = .13156E-3
MEAN_MOTION_DOT = .10759E-3
MEAN_MOTION_DDOT = 0

CCSDS_OMM_VERS = 2.0
CREATION_DATE  = 
ORIGINATOR     = 

OBJECT_NAME    = COSMOS 2550
OBJECT_ID      = 2021-056A
CENTER_NAME    = EARTH
REF_FRAME      = TEME
TIME_SYSTEM    = UTC
MEAN_ELEMENT_THEORY = SGP/SGP4

EPOCH          = 2026-01-08T07:56:16.181376
MEAN_MOTION    = 15.33825640
ECCENTRICITY   = .0008382
INCLINATION    = 67.1412
RA_OF_ASC_NODE = 223.5040
ARG_OF_PERICENTER = 268.8671
MEAN_ANOMALY   = 91.1523

EPHEMERIS_TYPE = 0
CLASSIFICATION_TYPE = U
NORAD_CAT_ID   = 48865
ELEMENT_SET_NO = 999
REV_AT_EPOCH   = 25420
BSTAR          = -.20453E-7
MEAN_MOTION_DOT = -.192E-5
MEAN_MOTION_DDOT = 0

CCSDS_OMM_VERS = 2.0
CREATION_DATE  = 
ORIGINATOR     = 

OBJECT_NAME    = CZ-2C R/B
OBJECT_ID      = 2022-058K
CENTER_NAME    = EARTH
REF_FRAME      = TEME
TIME_SYSTEM    = UTC
MEAN_ELEMENT_THEORY = SGP/SGP4

EPOCH          = 2026-01-08T02:56:48.416640
MEAN_MOTION    = 15.50157065
ECCENTRICITY   = .0043436
INCLINATION    = 50.1898
RA_OF_ASC_NODE = 268.8523
ARG_OF_PERICENTER = 306.5937
MEAN_ANOMALY   = 53.1039

EPHEMERIS_TYPE = 0
CLASSIFICATION_TYPE = U
NORAD_CAT_ID   = 52794
ELEMENT_SET_NO = 999
REV_AT_EPOCH   = 20072
BSTAR          = .52096E-3
MEAN_MOTION_DOT = .30754E-3
MEAN_MOTION_DDOT = 0

