SL-4 R/B                
1 39679U 14021B   26008.14332319  .00011113  00000+0  26193-3 0  9994
2 39679  51.6071 272.2147 0099753 241.8466 117.2411 15.37381090646959
ALOS-2                  
1 39766U 14029A   26008.18749083  .00000682  00000+0  98150-4 0  9995
2 39766  97.9215 107.6556 0001408  98.5996 261.5375 14.79462783627921
YAOGAN-29               
1 41038U 15069A   26008.20294682  .00000068  00000+0  15021-4 0  9992
2 41038  98.0195  36.4566 0001862 137.8035 222.3322 14.82916654546911
ASTRO-H (HITOMI)        
1 41337U 16012A   26008.14101390  .00002896  00000+0  17019-3 0  9998
2 41337  31.0009  27.1442 0009548  84.8157 275.3571 15.09558502543071
HXMT (HUIYAN)           
1 42758U 17034A   26008.20405582  .00006254  00000+0  32162-3 0  9996
2 42758  43.0155 352.7353 0032948 214.1195 145.7535 15.16624395473357
CZ-2C R/B               
1 43521U 18054D   26008.12909844  .00141096  00000+0  68663-3 0  9998
2 43521  35.1340   1.1177 0010741  52.9705 307.2011 15.80910909419225
SAOCOM 1A               
1 43641U 18076A   26008.20352833  .00001512  00000+0  19644-3 0  9997
2 43641  97.8845 197.2406 0001322  83.4667 276.6697 14.82169523392404
H-2A R/B                
1 43682U 18084L   26008.10845669  .00018017  00000+0  47032-3 0  9994
2 43682  98.8764 212.6772 0025882 233.2542 126.6322 15.38553619396455
SAOCOM 1B               
1 46265U 20059A   26008.16722809  .00000357  00000+0  51359-4 0  9991
2 46265  97.8843 196.3043 0001473  82.3899 277.7481 14.82174349289787
CSS (TIANHE)            
1 48274U 21035A   26008.03110192  .00010759  00000+0  13156-3 0  9999
2 48274  41.4651 216.9599 0011174 241.9537 118.0172 15.60269105268139
COSMOS 2550             
1 48865U 21056A   26008.33074284 -.00000192  00000+0 -20453-7 0  9996
2 48865  67.1412 223.5040 0008382 268.8671  91.1523 15.33825640254200
CZ-2C R/B               
1 52794U 22058K   26008.12278260  .00030754  00000+0  52096-3 0  9991
2 52794  50.1898 268.8523 0043436 306.5937  53.1039 15.50157065200724
